satname,norad_id,inclination_deg,eccentricity,mean_motion_rev_per_day,perigee_km,apogee_km,l1,l2
STARLINK-1297,45395,53.0542,0.0001237,15.45811453,428.152778961542,429.83686337409927,1 45395U 20019AM  26026.91670139  .00047677  00000+0  97075-3 0  9991,2 45395  53.0542 331.1384 0001237 117.3463 300.0945 15.45811453  5731
STARLINK-1307,45397,53.0571,0.0001652,15.45321068,429.31006464510483,431.5596167812764,1 45397U 20019AP  26026.91670139  .00049985  00000+0  10342-2 0  9998,2 45397  53.0571 330.5929 0001652 111.5334 266.0789 15.45321068  5787
STARLINK-1255,45399,53.0463,0.0006167,15.43689829,431.0286691119127,439.4322765529041,1 45399U 20019AR  26026.46070145  .00066893  00000+0  14556-2 0  9999,2 45399  53.0463 304.7443 0006167  94.5931 265.5779 15.43689829323890
STARLINK-1260,45404,53.1561,0.000185,15.29341276,476.51191946304243,479.0486088507814,1 45404U 20019AW  26026.91670139  .00015657  00000+0  55403-3 0  9994,2 45404  53.1561 323.2143 0001850 102.8275  40.5135 15.29341276  5831
STARLINK-1263,45405,53.1509,0.0001785,15.28685632,478.51630050207405,480.9645627451646,1 45405U 20019AX  26026.91670139  .00854964  00000+0  28180-1 0  9997,2 45405  53.1509 323.2313 0001785  99.8453 115.1022 15.28685632  5732
STARLINK-1265,45406,53.1493,0.0002024,15.27914847,480.65812561130406,483.43512794342496,1 45406U 20019AY  26026.91670139  .01684618  00000+0  55123-1 0  9993,2 45406  53.1493 323.2990 0002024 106.8559  30.1431 15.27914847  5843
STARLINK-1278,45408,53.0501,0.0006214,15.47121381,420.9243737056522,429.37950119711695,1 45408U 20019BA  26026.91670139  .00091670  00000+0  17655-2 0  9993,2 45408  53.0501 331.3226 0006214  45.2458 339.8061 15.47121381  5893
STARLINK-1296,45412,53.1325,0.0001964,15.24224958,491.7642082465909,494.4632355301492,1 45412U 20019BE  26026.91670139  .00779172  00000+0  29214-1 0  9991,2 45412  53.1325 323.1473 0001964  93.0291 107.8783 15.24224958  5791
STARLINK-1298,45413,53.0418,0.000814,15.76198401,335.7535938443125,346.69271217341156,1 45413U 20019BF  26026.91670139  .00121728  00000+0  75312-3 0  9992,2 45413  53.0418 265.2883 0008140 144.6298  21.1725 15.76198401  5950
STARLINK-1309,45414,53.0692,0.0001507,15.2545446,488.386175606498,490.45605762284595,1 45414U 20019BG  26026.91670139  .01730520  00000+0  61771-1 0  9992,2 45414  53.0692 323.3252 0001507  91.3156 271.4154 15.25454460  5783
STARLINK-1316,45415,53.1493,0.0001046,15.27896983,481.3825182038272,482.81767980493896,1 45415U 20019BH  26026.91670139  .01723756  00000+0  56291-1 0  9997,2 45415  53.1493 323.2999 0001046  88.3100 168.6553 15.27896983  5832
STARLINK-1318,45416,53.0396,0.0004751,15.83458849,317.4851601651644,323.8503644503098,1 45416U 20019BJ  26026.91670139  .00258940  00000+0  11310-2 0  9999,2 45416  53.0396 252.3703 0004751 178.8313  99.5660 15.83458849  5980
STARLINK-1286,45417,53.0518,0.0002241,15.47674336,422.0071287370929,425.0556365061839,1 45417U 20019BK  26026.86819544  .00042725  00000+0  81723-3 0  9997,2 45417  53.0518 331.1796 0002241  46.5206 313.5987 15.47674336323748
STARLINK-1308,45419,53.0565,0.0001616,15.38805532,448.53695183370564,450.7436894637385,1 45419U 20019BM  26026.91670139  .01302489  00000+0  30568-1 0  9996,2 45419  53.0565 351.1655 0001616  94.8859 321.6282 15.38805532  5832
STARLINK-1329,45531,53.0542,0.0006927,15.47252974,420.0538169990823,429.47855907579014,1 45531U 20025A   26026.71402134  .00091328  00000+0  17508-2 0  9990,2 45531  53.0542 283.3055 0006927 105.4011 254.7761 15.47252974318933
STARLINK-1338,45532,53.0515,0.0005078,15.45890387,425.30655810025564,432.2196458438184,1 45532U 20025B   26025.70626240  .00109887  00000+0  22015-2 0  9994,2 45532  53.0515 291.1053 0005078 114.8434 245.3101 15.45890387318734
STARLINK-1350,45535,53.072,0.0001869,15.34934222,459.8376240192365,462.3941367459247,1 45535U 20025E   26026.54878844  .00014540  00000+0  43323-3 0  9996,2 45535  53.0720 230.8761 0001869 117.6774 242.4417 15.34934222319681
STARLINK-1362,45538,53.0548,0.0001815,15.06390212,545.9846007029037,548.4985131190624,1 45538U 20025H   26026.07241227  .00012145  00000+0  83306-3 0  9990,2 45538  53.0548 297.6539 0001815 101.6644 258.4549 15.06390212318671
STARLINK-1368,45540,53.0708,0.0001685,15.10830031,532.5026989611733,534.8319770230764,1 45540U 20025K   26026.91670139  .00048861  00000+0  29037-2 0  9998,2 45540  53.0708 294.0935 0001685 114.1637 150.1839 15.10830031  5833
STARLINK-1371,45542,53.0541,0.0004056,15.41000368,440.38889421605654,445.9223267816924,1 45542U 20025M   26026.73745559  .00089129  00000+0  21133-2 0  9990,2 45542  53.0541 288.8997 0004056 115.6485 244.4939 15.41000368318854
STARLINK-1372,45543,53.0545,0.0001536,15.06409002,546.1202389414739,548.2476975429181,1 45543U 20025N   26026.01808343  .00001125  00000+0  94378-4 0  9996,2 45543  53.0545 298.1790 0001536  78.8291 281.2870 15.06409002317759
STARLINK-1373,45544,53.0526,0.0003934,15.42558706,435.8791012998763,441.2424791212143,1 45544U 20025P   26026.76052882  .00133934  00000+0  29929-2 0  9990,2 45544  53.0526 289.1569 0003934 128.6394 231.4964 15.42558706318854
STARLINK-1294,45551,53.0384,0.0004987,15.81669917,322.37467577820644,329.0611006437084,1 45551U 20025W   26026.91670139  .00401246  00000+0  18725-2 0  9992,2 45551  53.0384 188.1267 0004987 286.8182 208.4659 15.81669917  5980
STARLINK-1325,45554,53.036,0.0004622,16.08333482,248.35475508562195,254.48311659271258,1 45554U 20025Z   26026.58759865  .00880811  43510-3  10195-2 0  9991,2 45554  53.0360 175.8677 0004622 266.7805  93.2699 16.08333482320439
STARLINK-1327,45555,53.0528,0.0005385,15.44972357,427.7923292322739,435.12626444396847,1 45555U 20025AA  26026.66908545  .00027337  00000+0  57785-3 0  9998,2 45555  53.0528 268.1774 0005385 121.8382 238.3148 15.44972357319133
STARLINK-1356,45564,53.0545,0.0001378,15.38497474,449.61072792444975,451.4927145360207,1 45564U 20025AK  26026.91670139 -.00000605  00000+0 -54534-5 0  9993,2 45564  53.0545 271.9045 0001378  84.1702 212.5848 15.38497474  5587
STARLINK-1357,45565,53.0575,0.0005765,15.46309342,423.6100757258673,431.4570138640165,1 45565U 20025AL  26026.57467096  .00104014  00000+0  20559-2 0  9996,2 45565  53.0575 240.4035 0005765 122.9798 237.1763 15.46309342319527
STARLINK-1361,45567,53.0635,0.0001243,15.35899785,457.3994280955121,459.0989537025689,1 45567U 20025AN  26026.91670139  .01012785  00000+0  26304-1 0  9997,2 45567  53.0635 272.3863 0001243  83.7594 228.8099 15.35899785  5843
STARLINK-1363,45568,53.047,0.0001344,15.64271502,374.4270555234398,376.24238872234673,1 45568U 20025AP  26026.58667280  .00093206  00000+0  95360-3 0  9990,2 45568  53.0470 246.2501 0001344  80.2779 279.8387 15.64271502319431
STARLINK-1366,45569,53.0482,7.44e-05,15.64115846,375.28027955519156,376.28526281714403,1 45569U 20025AQ  26026.66667824  .00136138  00000+0  13915-2 0  9991,2 45569  53.0482 246.4862 0000744  93.9606 341.3342 15.64115846  5920
STARLINK-1376,45570,53.1609,0.0001635,15.29362264,476.59660761590476,478.83847205043,1 45570U 20025AR  26026.69886053  .00019197  00000+0  67574-3 0  9999,2 45570  53.1609 272.5952 0001635  95.8592 264.2594 15.29362264319074
STARLINK-1320,45572,53.0515,0.0005815,15.59156525,386.16124617965033,394.0327022916863,1 45572U 20025AT  26026.91670139  .00185560  00000+0  22796-2 0  9996,2 45572  53.0515 190.5129 0005815 210.8646 268.6333 15.59156525  5984
STARLINK-1321,45573,53.0547,0.0003591,15.41508525,439.20745135279503,444.1054270008117,1 45573U 20025AU  26026.63762262  .00082938  00000+0  19359-2 0  9991,2 45573  53.0547 258.6540 0003591 121.0217 239.1140 15.41508525318965
STARLINK-1331,45578,53.0559,0.0001499,15.24462156,491.37105699835683,493.4308442759584,1 45578U 20025AZ  26026.91670139  .01063175  00000+0  39624-1 0  9997,2 45578  53.0559 263.3670 0001499  88.2122 295.7269 15.24462156  5787
STARLINK-1333,45580,53.1601,0.0001157,15.29911263,475.2842890441889,476.87035423821817,1 45580U 20025BB  26026.82659324  .00117987  00000+0  39682-2 0  9998,2 45580  53.1601 272.2563 0001157  69.1480 290.9645 15.29911263319095
STARLINK-1335,45581,53.0537,0.0001891,15.0640591,545.8838647115999,548.503024685785,1 45581U 20025BC  26026.66588542  .00002080  00000+0  15846-3 0  9998,2 45581  53.0537 265.2698 0001891  91.8913 268.2292 15.06405910319179
STARLINK-1337,45582,53.053,0.0001167,15.30598179,473.2267889696268,474.8260839156919,1 45582U 20025BD  26026.91670139  .01719149  00000+0  51710-1 0  9991,2 45582  53.0530 262.7484 0001167  95.9661  65.7540 15.30598179  5848
STARLINK-1347,45586,53.0514,0.0005648,15.44790821,428.1464112926187,435.8391338837355,1 45586U 20025BH  26026.83009919  .00030462  00000+0  64657-3 0  9997,2 45586  53.0514 230.3010 0005648 130.1044 230.0457 15.44790821319671
STARLINK-1364,45589,53.0549,0.0001459,15.36463797,455.57888308386464,457.573252357025,1 45589U 20025BL  26026.91670139  .01572937  00000+0  39711-1 0  9997,2 45589  53.0549 262.3011 0001459  93.4658 277.1972 15.36463797  5841
STARLINK-1365,45590,53.0533,0.000131,15.39481817,446.7463966529285,448.53475037719,1 45590U 20025BM  26026.91670139  .01640965  00000+0  37427-1 0  9998,2 45590  53.0533 291.8973 0001310 127.1659   2.3991 15.39481817  5847
STARLINK-1443,45660,53.056,0.0001358,15.06394546,546.2878091090206,548.1687383173612,1 45660U 20035D   26026.62627041  .00000133  00000+0  27805-4 0  9997,2 45660  53.0560 255.4472 0001358  96.3856 263.7288 15.06394546312392
STARLINK-1446,45663,53.0253,0.0004874,15.40938394,440.01371620272585,446.6632905234037,1 45663U 20035G   26026.74509251  .00028725  00000+0  69439-3 0  9990,2 45663  53.0253 198.3303 0004874 133.3071 226.8340 15.40938394313202
STARLINK-1448,45665,53.0546,0.0001259,15.35574832,458.35279594041003,460.0744408261189,1 45665U 20035J   26026.91670139  .01617442  00000+0  41895-1 0  9990,2 45665  53.0546 252.4192 0001259  65.6260 218.4608 15.35574832  5689
